{
    "links": {
        "self": "http://www.neowsapp.com/rest/v1/neo/3727633?api_key=iIulBulltgU6a56xZRHN4H3l9WmuAYTsLGpBGhQ2"
    },
    "id": "3727633",
    "neo_reference_id": "3727633",
    "name": "(2015 RH83)",
    "designation": "2015 RH83",
    "nasa_jpl_url": "http://ssd.jpl.nasa.gov/sbdb.cgi?sstr=3727633",
    "absolute_magnitude_h": 24.8,
    "estimated_diameter": {
        "kilometers": {
            "estimated_diameter_min": 0.0291443905,
            "estimated_diameter_max": 0.0651688382
        },
        "meters": {
            "estimated_diameter_min": 29.1443904535,
            "estimated_diameter_max": 65.1688382168
        },
        "miles": {
            "estimated_diameter_min": 0.018109479,
            "estimated_diameter_max": 0.0404940262
        },
        "feet": {
            "estimated_diameter_min": 95.6180819754,
            "estimated_diameter_max": 213.8085311752
        }
    },
    "is_potentially_hazardous_asteroid": false,
    "close_approach_data": [
        {
            "close_approach_date": "2015-08-17",
            "close_approach_date_full": "2015-Aug-17 15:55",
            "epoch_date_close_approach": 1439826900000,
            "relative_velocity": {
                "kilometers_per_second": "6.5873264631",
                "kilometers_per_hour": "23714.3752670912",
                "miles_per_hour": "14735.1905652656"
            },
            "miss_distance": {
                "astronomical": "0.0851311761",
                "lunar": "33.1160275029",
                "kilometers": "12735442.615154907",
                "miles": "7913437.0901034366"
            },
            "orbiting_body": "Earth"
        }
    ],
    "orbital_data": {
        "orbit_id": "6",
        "orbit_determination_date": "2017-04-06 08:31:57",
        "first_observation_date": "2015-09-11",
        "last_observation_date": "2015-10-02",
        "data_arc_in_days": 21,
        "observations_used": 18,
        "orbit_uncertainty": "7",
        "minimum_orbit_intersection": ".0844574",
        "jupiter_tisserand_invariant": "3.363",
        "epoch_osculation": "2459000.5",
        "eccentricity": ".5340308770393227",
        "semi_major_axis": "2.325215524411453",
        "inclination": "5.259167161346199",
        "ascending_node_longitude": "353.329194378931",
        "orbital_period": "1295.070013515074",
        "perihelion_distance": "1.083478638604556",
        "perihelion_argument": "329.7133575411299",
        "aphelion_distance": "3.566952410218349",
        "perihelion_time": "2458544.082732307965",
        "mean_anomaly": "126.8736166032928",
        "mean_motion": ".2779772492939509",
        "equinox": "J2000",
        "orbit_class": {
            "orbit_class_type": "AMO",
            "orbit_class_description": "Near-Earth asteroid orbits similar to that of 1221 Amor",
            "orbit_class_range": "1.017 AU < q (perihelion) < 1.3 AU"
        }
    },
    "is_sentry_object": false
}